{"type": "FeatureCollection", "features": [ {"type": "Feature", "properties": {"norad_id": 34014, "name": "COSMOS 2251 DEB", "group": "cosmos-2251-debris", "lat": 37.663987847672544, "lon": 63.454082560160465, "alt_km": 655.6164785751262, "timestamp": "2025-12-25T07:00:34.441664+00:00", "meta": {"OBJECT_NAME": "COSMOS 2251 DEB", "OBJECT_ID": "1993-036GZ", "EPOCH": "2025-12-24T20:56:23.025408", "MEAN_MOTION": 14.73275993, "ECCENTRICITY": 0.00375418, "INCLINATION": 74.0165, "RA_OF_ASC_NODE": 257.0544, "ARG_OF_PERICENTER": 33.3261, "MEAN_ANOMALY": 42.2864, "EPHEMERIS_TYPE": 0, "CLASSIFICATION_TYPE": "U", "NORAD_CAT_ID": 34014, "ELEMENT_SET_NO": 999, "REV_AT_EPOCH": 89482, "BSTAR": 0.00088818567, "MEAN_MOTION_DOT": 5.778e-05, "MEAN_MOTION_DDOT": 0}, "tle": {"line1": "1 34014U 93036GZ  25358.87248872  .00005778  00000+0  88819-3 0  9995", "line2": "2 34014  74.0165 257.0544 0037541  33.3261  42.2864 14.73275993894829"}}, "geometry": {"type": "Point", "coordinates": [63.454082560160465, 37.663987847672544]}}, {"type": "Feature", "properties": {"norad_id": 34015, "name": "COSMOS 2251 DEB", "group": "cosmos-2251-debris", "lat": 33.17366592329545, "lon": 146.23699274678955, "alt_km": 703.6376088332627, "timestamp": "2025-12-25T07:00:34.441674+00:00", "meta": {"OBJECT_NAME": "COSMOS 2251 DEB", "OBJECT_ID": "1993-036HA", "EPOCH": "2025-12-24T20:01:55.667712", "MEAN_MOTION": 14.60394498, "ECCENTRICITY": 0.00209532, "INCLINATION": 74.0243, "RA_OF_ASC_NODE": 136.3167, "ARG_OF_PERICENTER": 233.1118, "MEAN_ANOMALY": 277.8758, "EPHEMERIS_TYPE": 0, "CLASSIFICATION_TYPE": "U", "NORAD_CAT_ID": 34015, "ELEMENT_SET_NO": 999, "REV_AT_EPOCH": 88707, "BSTAR": 0.0012459859, "MEAN_MOTION_DOT": 6.025e-05, "MEAN_MOTION_DDOT": 0}, "tle": {"line1": "1 34015U 93036HA  25358.83467208  .00006025  00000+0  12460-2 0  9992", "line2": "2 34015  74.0243 136.3167 0020953 233.1118 277.8758 14.60394498887072"}}, "geometry": {"type": "Point", "coordinates": [146.23699274678955, 33.17366592329545]}}, {"type": "Feature", "properties": {"norad_id": 34018, "name": "COSMOS 2251 DEB", "group": "cosmos-2251-debris", "lat": -21.54478131397229, "lon": -102.61775264121508, "alt_km": 987.003751825895, "timestamp": "2025-12-25T07:00:34.441685+00:00", "meta": {"OBJECT_NAME": "COSMOS 2251 DEB", "OBJECT_ID": "1993-036HD", "EPOCH": "2025-12-24T14:57:42.539328", "MEAN_MOTION": 13.81084648, "ECCENTRICITY": 0.02631386, "INCLINATION": 73.878, "RA_OF_ASC_NODE": 71.958, "ARG_OF_PERICENTER": 105.5615, "MEAN_ANOMALY": 10.5725, "EPHEMERIS_TYPE": 0, "CLASSIFICATION_TYPE": "U", "NORAD_CAT_ID": 34018, "ELEMENT_SET_NO": 999, "REV_AT_EPOCH": 84821, "BSTAR": 0.00033994126, "MEAN_MOTION_DOT": 4.46e-06, "MEAN_MOTION_DDOT": 0}, "tle": {"line1": "1 34018U 93036HD  25358.62340902  .00000446  00000+0  33994-3 0  9990", "line2": "2 34018  73.8780  71.9580 0263138 105.5615  10.5725 13.81084648848213"}}, "geometry": {"type": "Point", "coordinates": [-102.61775264121508, -21.54478131397229]}}, {"type": "Feature", "properties": {"norad_id": 34019, "name": "COSMOS 2251 DEB", "group": "cosmos-2251-debris", "lat": -11.51408798083898, "lon": -148.9835533916651, "alt_km": 739.374854180156, "timestamp": "2025-12-25T07:00:34.441695+00:00", "meta": {"OBJECT_NAME": "COSMOS 2251 DEB", "OBJECT_ID": "1993-036HE", "EPOCH": "2025-12-24T08:25:19.297920", "MEAN_MOTION": 14.33986243, "ECCENTRICITY": 0.00622163, "INCLINATION": 73.9533, "RA_OF_ASC_NODE": 29.3855, "ARG_OF_PERICENTER": 208.8459, "MEAN_ANOMALY": 166.6102, "EPHEMERIS_TYPE": 0, "CLASSIFICATION_TYPE": "U", "NORAD_CAT_ID": 34019, "ELEMENT_SET_NO": 999, "REV_AT_EPOCH": 87687, "BSTAR": 0.00069076616, "MEAN_MOTION_DOT": 1.944e-05, "MEAN_MOTION_DDOT": 0}, "tle": {"line1": "1 34019U 93036HE  25358.35091780  .00001944  00000+0  69077-3 0  9993", "line2": "2 34019  73.9533  29.3855 0062216 208.8459 166.6102 14.33986243876875"}}, "geometry": {"type": "Point", "coordinates": [-148.9835533916651, -11.51408798083898]}}, {"type": "Feature", "properties": {"norad_id": 34021, "name": "COSMOS 2251 DEB", "group": "cosmos-2251-debris", "lat": -61.64969129363713, "lon": 74.2204651553982, "alt_km": 721.91059724562, "timestamp": "2025-12-25T07:00:34.441706+00:00", "meta": {"OBJECT_NAME": "COSMOS 2251 DEB", "OBJECT_ID": "1993-036HG", "EPOCH": "2025-12-24T02:19:09.727104", "MEAN_MOTION": 14.4998687, "ECCENTRICITY": 0.00209726, "INCLINATION": 74.036, "RA_OF_ASC_NODE": 108.5044, "ARG_OF_PERICENTER": 251.5081, "MEAN_ANOMALY": 284.5816, "EPHEMERIS_TYPE": 0, "CLASSIFICATION_TYPE": "U", "NORAD_CAT_ID": 34021, "ELEMENT_SET_NO": 999, "REV_AT_EPOCH": 88794, "BSTAR": 0.00045043556, "MEAN_MOTION_DOT": 1.721e-05, "MEAN_MOTION_DDOT": 0}, "tle": {"line1": "1 34021U 93036HG  25358.09664036  .00001721  00000+0  45044-3 0  9998", "line2": "2 34021  74.0360 108.5044 0020972 251.5081 284.5816 14.49986870887942"}}, "geometry": {"type": "Point", "coordinates": [74.2204651553982, -61.64969129363713]}}, {"type": "Feature", "properties": {"norad_id": 34022, "name": "COSMOS 2251 DEB", "group": "cosmos-2251-debris", "lat": -25.53180878458865, "lon": -120.18203694664899, "alt_km": 751.9744476454043, "timestamp": "2025-12-25T07:00:34.441717+00:00", "meta": {"OBJECT_NAME": "COSMOS 2251 DEB", "OBJECT_ID": "1993-036HH", "EPOCH": "2025-12-24T03:27:59.406912", "MEAN_MOTION": 14.38978914, "ECCENTRICITY": 0.00230504, "INCLINATION": 74.0538, "RA_OF_ASC_NODE": 249.7812, "ARG_OF_PERICENTER": 312.9302, "MEAN_ANOMALY": 197.7556, "EPHEMERIS_TYPE": 0, "CLASSIFICATION_TYPE": "U", "NORAD_CAT_ID": 34022, "ELEMENT_SET_NO": 999, "REV_AT_EPOCH": 88359, "BSTAR": 0.00019461468, "MEAN_MOTION_DOT": 5.76e-06, "MEAN_MOTION_DDOT": 0}, "tle": {"line1": "1 34022U 93036HH  25358.14443758  .00000576  00000+0  19461-3 0  9992", "line2": "2 34022  74.0538 249.7812 0023050 312.9302 197.7556 14.38978914883590"}}, "geometry": {"type": "Point", "coordinates": [-120.18203694664899, -25.53180878458865]}}, {"type": "Feature", "properties": {"norad_id": 34023, "name": "COSMOS 2251 DEB", "group": "cosmos-2251-debris", "lat": -33.425772589222746, "lon": -142.38551758001523, "alt_km": 748.9029391936019, "timestamp": "2025-12-25T07:00:34.441727+00:00", "meta": {"OBJECT_NAME": "COSMOS 2251 DEB", "OBJECT_ID": "1993-036HJ", "EPOCH": "2025-12-24T18:08:36.989088", "MEAN_MOTION": 14.40583303, "ECCENTRICITY": 0.00188985, "INCLINATION": 74.0239, "RA_OF_ASC_NODE": 229.5056, "ARG_OF_PERICENTER": 323.436, "MEAN_ANOMALY": 102.6409, "EPHEMERIS_TYPE": 0, "CLASSIFICATION_TYPE": "U", "NORAD_CAT_ID": 34023, "ELEMENT_SET_NO": 999, "REV_AT_EPOCH": 88387, "BSTAR": 0.00024813007, "MEAN_MOTION_DOT": 7.66e-06, "MEAN_MOTION_DDOT": 0}, "tle": {"line1": "1 34023U 93036HJ  25358.75598367  .00000766  00000+0  24813-3 0  9995", "line2": "2 34023  74.0239 229.5056 0018898 323.4360 102.6409 14.40583303883870"}}, "geometry": {"type": "Point", "coordinates": [-142.38551758001523, -33.425772589222746]}}, {"type": "Feature", "properties": {"norad_id": 34024, "name": "COSMOS 2251 DEB", "group": "cosmos-2251-debris", "lat": 70.49825774599977, "lon": 59.1167560516818, "alt_km": 774.2838941443733, "timestamp": "2025-12-25T07:00:34.441738+00:00", "meta": {"OBJECT_NAME": "COSMOS 2251 DEB", "OBJECT_ID": "1993-036HK", "EPOCH": "2025-12-24T22:29:00.697632", "MEAN_MOTION": 14.35409543, "ECCENTRICITY": 0.00215601, "INCLINATION": 74.047, "RA_OF_ASC_NODE": 293.6376, "ARG_OF_PERICENTER": 341.787, "MEAN_ANOMALY": 84.3153, "EPHEMERIS_TYPE": 0, "CLASSIFICATION_TYPE": "U", "NORAD_CAT_ID": 34024, "ELEMENT_SET_NO": 999, "REV_AT_EPOCH": 88199, "BSTAR": 0.0001991217, "MEAN_MOTION_DOT": 5.47e-06, "MEAN_MOTION_DDOT": 0}, "tle": {"line1": "1 34024U 93036HK  25358.93681363  .00000547  00000+0  19912-3 0  9996", "line2": "2 34024  74.0470 293.6376 0021560 341.7870  84.3153 14.35409543881994"}}, "geometry": {"type": "Point", "coordinates": [59.1167560516818, 70.49825774599977]}}, {"type": "Feature", "properties": {"norad_id": 34026, "name": "COSMOS 2251 DEB", "group": "cosmos-2251-debris", "lat": 56.63923025450818, "lon": -17.324772991800515, "alt_km": 1148.8446309748997, "timestamp": "2025-12-25T07:00:34.441748+00:00", "meta": {"OBJECT_NAME": "COSMOS 2251 DEB", "OBJECT_ID": "1993-036HM", "EPOCH": "2025-12-24T08:35:49.007904", "MEAN_MOTION": 13.65322301, "ECCENTRICITY": 0.03496257, "INCLINATION": 73.7668, "RA_OF_ASC_NODE": 317.9648, "ARG_OF_PERICENTER": 186.195, "MEAN_ANOMALY": 329.3041, "EPHEMERIS_TYPE": 0, "CLASSIFICATION_TYPE": "U", "NORAD_CAT_ID": 34026, "ELEMENT_SET_NO": 999, "REV_AT_EPOCH": 83690, "BSTAR": 0.00041893163, "MEAN_MOTION_DOT": 4.94e-06, "MEAN_MOTION_DDOT": 0}, "tle": {"line1": "1 34026U 93036HM  25358.35820611  .00000494  00000+0  41893-3 0  9999", "line2": "2 34026  73.7668 317.9648 0349625 186.1950 329.3041 13.65322301836905"}}, "geometry": {"type": "Point", "coordinates": [-17.324772991800515, 56.63923025450818]}}, {"type": "Feature", "properties": {"norad_id": 34028, "name": "COSMOS 2251 DEB", "group": "cosmos-2251-debris", "lat": -44.96788882822788, "lon": 164.79112499158325, "alt_km": 1399.9766063737488, "timestamp": "2025-12-25T07:00:34.441759+00:00", "meta": {"OBJECT_NAME": "COSMOS 2251 DEB", "OBJECT_ID": "1993-036HP", "EPOCH": "2025-12-24T22:58:31.903680", "MEAN_MOTION": 13.20633393, "ECCENTRICITY": 0.05434687, "INCLINATION": 73.884, "RA_OF_ASC_NODE": 328.5191, "ARG_OF_PERICENTER": 104.2652, "MEAN_ANOMALY": 326.7797, "EPHEMERIS_TYPE": 0, "CLASSIFICATION_TYPE": "U", "NORAD_CAT_ID": 34028, "ELEMENT_SET_NO": 999, "REV_AT_EPOCH": 81169, "BSTAR": 0.00047810502, "MEAN_MOTION_DOT": 4.06e-06, "MEAN_MOTION_DDOT": 0}, "tle": {"line1": "1 34028U 93036HP  25358.95731370  .00000406  00000+0  47811-3 0  9999", "line2": "2 34028  73.8840 328.5191 0543468 104.2652 326.7797 13.20633393811697"}}, "geometry": {"type": "Point", "coordinates": [164.79112499158325, -44.96788882822788]}}]}